ALOS-4 (DAICHI-4)       
1 60182U 24123A   24233.58367190  .00005209  00000+0  70374-3 0  9991
2 60182  97.9222 329.3211 0001512  97.6959 262.4424 14.79480287  7466
